[{"OBJECT_NAME":"STARLINK-30523","OBJECT_ID":"2023-153G","EPOCH":"2026-03-09T00:17:42.818496","MEAN_MOTION":15.26734967,"ECCENTRICITY":0.000132,"INCLINATION":43.0041,"RA_OF_ASC_NODE":70.8064,"ARG_OF_PERICENTER":255.6491,"MEAN_ANOMALY":104.4214,"EPHEMERIS_TYPE":0,"CLASSIFICATION_TYPE":"U","NORAD_CAT_ID":57997,"ELEMENT_SET_NO":999,"REV_AT_EPOCH":13479,"BSTAR":2.2765282e-5,"MEAN_MOTION_DOT":3.51e-6,"MEAN_MOTION_DDOT":0},{"OBJECT_NAME":"LIME","OBJECT_ID":"2025-009AR","EPOCH":"2026-03-09T17:44:15.459648","MEAN_MOTION":15.28703313,"ECCENTRICITY":0.00016347,"INCLINATION":97.3985,"RA_OF_ASC_NODE":151.4831,"ARG_OF_PERICENTER":35.9029,"MEAN_ANOMALY":324.232,"EPHEMERIS_TYPE":0,"CLASSIFICATION_TYPE":"U","NORAD_CAT_ID":62648,"ELEMENT_SET_NO":999,"REV_AT_EPOCH":6376,"BSTAR":0.00047722827,"MEAN_MOTION_DOT":0.00013254,"MEAN_MOTION_DDOT":0}]
